{"type": "FeatureCollection", "features": [ {"type": "Feature", "properties": {"norad_id": 31735, "name": "FENGYUN 1C DEB", "group": "fengyun-1c-debris", "lat": 13.094129205136788, "lon": -89.45554211587715, "alt_km": 773.5562550524164, "timestamp": "2025-12-11T05:00:26.592568+00:00", "meta": {"OBJECT_NAME": "FENGYUN 1C DEB", "OBJECT_ID": "1999-025CEJ", "EPOCH": "2025-12-10T18:14:36.995424", "MEAN_MOTION": 14.42535412, "ECCENTRICITY": 0.00588803, "INCLINATION": 98.5803, "RA_OF_ASC_NODE": 88.0808, "ARG_OF_PERICENTER": 290.412, "MEAN_ANOMALY": 69.0752, "EPHEMERIS_TYPE": 0, "CLASSIFICATION_TYPE": "U", "NORAD_CAT_ID": 31735, "ELEMENT_SET_NO": 999, "REV_AT_EPOCH": 96636, "BSTAR": 0.00062765807, "MEAN_MOTION_DOT": 2.079e-05, "MEAN_MOTION_DDOT": 0}, "tle": {"line1": "1 31735U 99025CEJ 25344.76015041  .00002079  00000+0  62766-3 0  9993", "line2": "2 31735  98.5803  88.0808 0058880 290.4120  69.0752 14.42535412966363"}}, "geometry": {"type": "Point", "coordinates": [-89.45554211587715, 13.094129205136788]}}, {"type": "Feature", "properties": {"norad_id": 31736, "name": "FENGYUN 1C DEB", "group": "fengyun-1c-debris", "lat": -20.167057103783954, "lon": -9.619436704047207, "alt_km": 850.6499579827305, "timestamp": "2025-12-11T05:00:26.592578+00:00", "meta": {"OBJECT_NAME": "FENGYUN 1C DEB", "OBJECT_ID": "1999-025CEK", "EPOCH": "2025-12-07T06:00:46.728576", "MEAN_MOTION": 14.14178475, "ECCENTRICITY": 0.00109922, "INCLINATION": 98.6782, "RA_OF_ASC_NODE": 343.321, "ARG_OF_PERICENTER": 257.8319, "MEAN_ANOMALY": 102.1623, "EPHEMERIS_TYPE": 0, "CLASSIFICATION_TYPE": "U", "NORAD_CAT_ID": 31736, "ELEMENT_SET_NO": 999, "REV_AT_EPOCH": 63987, "BSTAR": 0.00026653832, "MEAN_MOTION_DOT": 4.65e-06, "MEAN_MOTION_DDOT": 0}, "tle": {"line1": "1 31736U 99025CEK 25341.25054084  .00000465  00000+0  26654-3 0  9998", "line2": "2 31736  98.6782 343.3210 0010992 257.8319 102.1623 14.14178475639874"}}, "geometry": {"type": "Point", "coordinates": [-9.619436704047207, -20.167057103783954]}}, {"type": "Feature", "properties": {"norad_id": 31737, "name": "FENGYUN 1C DEB", "group": "fengyun-1c-debris", "lat": -41.2375989691685, "lon": 25.778110809845764, "alt_km": 621.5307776247737, "timestamp": "2025-12-11T05:00:26.592588+00:00", "meta": {"OBJECT_NAME": "FENGYUN 1C DEB", "OBJECT_ID": "1999-025CEL", "EPOCH": "2025-12-09T09:05:57.928416", "MEAN_MOTION": 14.68701198, "ECCENTRICITY": 0.014913, "INCLINATION": 97.9175, "RA_OF_ASC_NODE": 16.9987, "ARG_OF_PERICENTER": 26.4033, "MEAN_ANOMALY": 346.082, "EPHEMERIS_TYPE": 0, "CLASSIFICATION_TYPE": "U", "NORAD_CAT_ID": 31737, "ELEMENT_SET_NO": 999, "REV_AT_EPOCH": 98150, "BSTAR": 0.00084960801, "MEAN_MOTION_DOT": 5.81e-05, "MEAN_MOTION_DDOT": 0}, "tle": {"line1": "1 31737U 99025CEL 25343.37914269  .00005810  00000+0  84961-3 0  9998", "line2": "2 31737  97.9175  16.9987 0149130  26.4033 346.0820 14.68701198981508"}}, "geometry": {"type": "Point", "coordinates": [25.778110809845764, -41.2375989691685]}}, {"type": "Feature", "properties": {"norad_id": 31738, "name": "FENGYUN 1C DEB", "group": "fengyun-1c-debris", "lat": 79.88107280113414, "lon": -59.955579264134634, "alt_km": 716.4816446199384, "timestamp": "2025-12-11T05:00:26.592598+00:00", "meta": {"OBJECT_NAME": "FENGYUN 1C DEB", "OBJECT_ID": "1999-025CEM", "EPOCH": "2025-11-17T10:08:15.850752", "MEAN_MOTION": 13.84884182, "ECCENTRICITY": 0.03082109, "INCLINATION": 99.3633, "RA_OF_ASC_NODE": 28.6808, "ARG_OF_PERICENTER": 167.6176, "MEAN_ANOMALY": 193.2777, "EPHEMERIS_TYPE": 0, "CLASSIFICATION_TYPE": "U", "NORAD_CAT_ID": 31738, "ELEMENT_SET_NO": 999, "REV_AT_EPOCH": 61907, "BSTAR": 0.0026324864, "MEAN_MOTION_DOT": 4.259e-05, "MEAN_MOTION_DDOT": 0}, "tle": {"line1": "1 31738U 99025CEM 25321.42240568  .00004259  00000+0  26325-2 0  9990", "line2": "2 31738  99.3633  28.6808 0308210 167.6176 193.2777 13.84884182619073"}}, "geometry": {"type": "Point", "coordinates": [-59.955579264134634, 79.88107280113414]}}, {"type": "Feature", "properties": {"norad_id": 31739, "name": "FENGYUN 1C DEB", "group": "fengyun-1c-debris", "lat": -4.215850317364611, "lon": -140.0905586567521, "alt_km": 848.8549204055662, "timestamp": "2025-12-11T05:00:26.592608+00:00", "meta": {"OBJECT_NAME": "FENGYUN 1C DEB", "OBJECT_ID": "1999-025CEN", "EPOCH": "2025-12-10T21:23:16.738080", "MEAN_MOTION": 14.19216316, "ECCENTRICITY": 0.01284373, "INCLINATION": 98.7479, "RA_OF_ASC_NODE": 40.2463, "ARG_OF_PERICENTER": 83.501, "MEAN_ANOMALY": 278.077, "EPHEMERIS_TYPE": 0, "CLASSIFICATION_TYPE": "U", "NORAD_CAT_ID": 31739, "ELEMENT_SET_NO": 999, "REV_AT_EPOCH": 95460, "BSTAR": 0.00013586971, "MEAN_MOTION_DOT": 2.66e-06, "MEAN_MOTION_DDOT": 0}, "tle": {"line1": "1 31739U 99025CEN 25344.89116595  .00000266  00000+0  13587-3 0  9990", "line2": "2 31739  98.7479  40.2463 0128437  83.5010 278.0770 14.19216316954609"}}, "geometry": {"type": "Point", "coordinates": [-140.0905586567521, -4.215850317364611]}}, {"type": "Feature", "properties": {"norad_id": 31740, "name": "FENGYUN 1C DEB", "group": "fengyun-1c-debris", "lat": 10.512040749658073, "lon": 154.47460606906844, "alt_km": 744.7860869943106, "timestamp": "2025-12-11T05:00:26.592618+00:00", "meta": {"OBJECT_NAME": "FENGYUN 1C DEB", "OBJECT_ID": "1999-025CEP", "EPOCH": "2025-12-07T23:23:54.081600", "MEAN_MOTION": 14.42100668, "ECCENTRICITY": 0.00243063, "INCLINATION": 99.8211, "RA_OF_ASC_NODE": 152.6005, "ARG_OF_PERICENTER": 82.3936, "MEAN_ANOMALY": 69.7261, "EPHEMERIS_TYPE": 0, "CLASSIFICATION_TYPE": "U", "NORAD_CAT_ID": 31740, "ELEMENT_SET_NO": 999, "REV_AT_EPOCH": 65006, "BSTAR": 0.0018306589, "MEAN_MOTION_DOT": 5.989e-05, "MEAN_MOTION_DDOT": 0}, "tle": {"line1": "1 31740U 99025CEP 25341.97493150  .00005989  00000+0  18307-2 0  9994", "line2": "2 31740  99.8211 152.6005 0024306  82.3936  69.7261 14.42100668650062"}}, "geometry": {"type": "Point", "coordinates": [154.47460606906844, 10.512040749658073]}}, {"type": "Feature", "properties": {"norad_id": 31742, "name": "FENGYUN 1C DEB", "group": "fengyun-1c-debris", "lat": 51.95438690826698, "lon": 36.537609339440245, "alt_km": 803.0345019008073, "timestamp": "2025-12-11T05:00:26.592628+00:00", "meta": {"OBJECT_NAME": "FENGYUN 1C DEB", "OBJECT_ID": "1999-025CER", "EPOCH": "2025-12-10T08:24:18.010080", "MEAN_MOTION": 14.39778728, "ECCENTRICITY": 0.00766688, "INCLINATION": 98.9231, "RA_OF_ASC_NODE": 204.0623, "ARG_OF_PERICENTER": 336.5762, "MEAN_ANOMALY": 23.1939, "EPHEMERIS_TYPE": 0, "CLASSIFICATION_TYPE": "U", "NORAD_CAT_ID": 31742, "ELEMENT_SET_NO": 999, "REV_AT_EPOCH": 96615, "BSTAR": 0.0010459487, "MEAN_MOTION_DOT": 3.346e-05, "MEAN_MOTION_DDOT": 0}, "tle": {"line1": "1 31742U 99025CER 25344.35020845  .00003346  00000+0  10459-2 0  9993", "line2": "2 31742  98.9231 204.0623 0076668 336.5762  23.1939 14.39778728966153"}}, "geometry": {"type": "Point", "coordinates": [36.537609339440245, 51.95438690826698]}}, {"type": "Feature", "properties": {"norad_id": 31743, "name": "FENGYUN 1C DEB", "group": "fengyun-1c-debris", "lat": -73.65136600679506, "lon": 59.754644758305176, "alt_km": 772.1670481347383, "timestamp": "2025-12-11T05:00:26.592638+00:00", "meta": {"OBJECT_NAME": "FENGYUN 1C DEB", "OBJECT_ID": "1999-025CES", "EPOCH": "2025-12-10T06:43:02.821728", "MEAN_MOTION": 14.31261876, "ECCENTRICITY": 0.0037389, "INCLINATION": 99.1414, "RA_OF_ASC_NODE": 272.0703, "ARG_OF_PERICENTER": 226.358, "MEAN_ANOMALY": 287.03, "EPHEMERIS_TYPE": 0, "CLASSIFICATION_TYPE": "U", "NORAD_CAT_ID": 31743, "ELEMENT_SET_NO": 999, "REV_AT_EPOCH": 95605, "BSTAR": 0.0025776, "MEAN_MOTION_DOT": 6.827e-05, "MEAN_MOTION_DDOT": 0}, "tle": {"line1": "1 31743U 99025CES 25344.27989377  .00006827  00000+0  25776-2 0  9994", "line2": "2 31743  99.1414 272.0703 0037389 226.3580 287.0300 14.31261876956059"}}, "geometry": {"type": "Point", "coordinates": [59.754644758305176, -73.65136600679506]}}, {"type": "Feature", "properties": {"norad_id": 31744, "name": "FENGYUN 1C DEB", "group": "fengyun-1c-debris", "lat": -69.47932024333385, "lon": 122.09105868146902, "alt_km": 954.2663777259513, "timestamp": "2025-12-11T05:00:26.592648+00:00", "meta": {"OBJECT_NAME": "FENGYUN 1C DEB", "OBJECT_ID": "1999-025CET", "EPOCH": "2025-12-04T13:59:28.410144", "MEAN_MOTION": 14.16423838, "ECCENTRICITY": 0.0316256, "INCLINATION": 99.3063, "RA_OF_ASC_NODE": 89.1727, "ARG_OF_PERICENTER": 67.4972, "MEAN_ANOMALY": 295.9356, "EPHEMERIS_TYPE": 0, "CLASSIFICATION_TYPE": "U", "NORAD_CAT_ID": 31744, "ELEMENT_SET_NO": 999, "REV_AT_EPOCH": 94499, "BSTAR": 0.0032306, "MEAN_MOTION_DOT": 0.00010446, "MEAN_MOTION_DDOT": 0}, "tle": {"line1": "1 31744U 99025CET 25338.58296771  .00010446  00000+0  32306-2 0  9990", "line2": "2 31744  99.3063  89.1727 0316256  67.4972 295.9356 14.16423838944997"}}, "geometry": {"type": "Point", "coordinates": [122.09105868146902, -69.47932024333385]}}, {"type": "Feature", "properties": {"norad_id": 31746, "name": "FENGYUN 1C DEB", "group": "fengyun-1c-debris", "lat": 31.99179927181207, "lon": 102.27045815738603, "alt_km": 654.8221200559801, "timestamp": "2025-12-11T05:00:26.592658+00:00", "meta": {"OBJECT_NAME": "FENGYUN 1C DEB", "OBJECT_ID": "1999-025CEV", "EPOCH": "2025-12-08T13:25:49.648224", "MEAN_MOTION": 14.76434428, "ECCENTRICITY": 0.0023745, "INCLINATION": 98.5888, "RA_OF_ASC_NODE": 104.8721, "ARG_OF_PERICENTER": 218.9091, "MEAN_ANOMALY": 141.0408, "EPHEMERIS_TYPE": 0, "CLASSIFICATION_TYPE": "U", "NORAD_CAT_ID": 31746, "ELEMENT_SET_NO": 999, "REV_AT_EPOCH": 96966, "BSTAR": 0.0049017, "MEAN_MOTION_DOT": 0.00034355, "MEAN_MOTION_DDOT": 0}, "tle": {"line1": "1 31746U 99025CEV 25342.55960241  .00034355  00000+0  49017-2 0  9996", "line2": "2 31746  98.5888 104.8721 0023745 218.9091 141.0408 14.76434428969660"}}, "geometry": {"type": "Point", "coordinates": [102.27045815738603, 31.99179927181207]}}]}